{
  "type": "FeatureCollection",
  "features": [
    {
      "type": "Feature",
      "properties": {
        "norad_id": 34874,
        "name": "COSMOS 2251 DEB",
        "group": "cosmos-2251-debris",
        "lat": 37.29481596153622,
        "lon": -122.01898066635428,
        "alt_km": 741.9893697527914,
        "timestamp": "2025-12-14T11:29:50.455661+00:00",
        "meta_object_name": "COSMOS 2251 DEB",
        "meta_object_id": "1993-036ACM",
        "meta_epoch": "2025-12-13T15:06:41.355648",
        "meta_mean_motion": 14.36316745,
        "meta_eccentricity": 0.00509273,
        "meta_inclination": 74.0396,
        "meta_ra_of_asc_node": 72.1302,
        "meta_arg_of_pericenter": 97.1629,
        "meta_mean_anomaly": 332.9464,
        "meta_ephemeris_type": 0,
        "meta_classification_type": "U",
        "meta_norad_cat_id": 34874,
        "meta_element_set_no": 999,
        "meta_rev_at_epoch": 87057,
        "meta_bstar": 0.0010808873,
        "meta_mean_motion_dot": 3.183e-05,
        "meta_mean_motion_ddot": 0,
        "tle_line1": "1 34874U 93036ACM 25347.62964532  .00003183  00000+0  10809-2 0  9999",
        "tle_line2": "2 34874  74.0396  72.1302 0050927  97.1629 332.9464 14.36316745870577"
      },
      "geometry": {
        "type": "Point",
        "coordinates": [
          -122.01898066635428,
          37.29481596153622
        ]
      }
    },
    {
      "type": "Feature",
      "properties": {
        "norad_id": 34875,
        "name": "COSMOS 2251 DEB",
        "group": "cosmos-2251-debris",
        "lat": -73.90557693883105,
        "lon": 72.38045947705474,
        "alt_km": 724.6852169365739,
        "timestamp": "2025-12-14T11:29:50.455671+00:00",
        "meta_object_name": "COSMOS 2251 DEB",
        "meta_object_id": "1993-036ACN",
        "meta_epoch": "2025-12-13T12:58:02.605152",
        "meta_mean_motion": 14.48928966,
        "meta_eccentricity": 0.0016151,
        "meta_inclination": 74.0435,
        "meta_ra_of_asc_node": 156.7147,
        "meta_arg_of_pericenter": 280.3903,
        "meta_mean_anomaly": 137.0272,
        "meta_ephemeris_type": 0,
        "meta_classification_type": "U",
        "meta_norad_cat_id": 34875,
        "meta_element_set_no": 999,
        "meta_rev_at_epoch": 87767,
        "meta_bstar": 0.00065299768,
        "meta_mean_motion_dot": 2.45e-05,
        "meta_mean_motion_ddot": 0,
        "tle_line1": "1 34875U 93036ACN 25347.54030793  .00002450  00000+0  65300-3 0  9997",
        "tle_line2": "2 34875  74.0435 156.7147 0016151 280.3903 137.0272 14.48928966877676"
      },
      "geometry": {
        "type": "Point",
        "coordinates": [
          72.38045947705474,
          -73.90557693883105
        ]
      }
    },
    {
      "type": "Feature",
      "properties": {
        "norad_id": 34878,
        "name": "COSMOS 2251 DEB",
        "group": "cosmos-2251-debris",
        "lat": 64.26565111816363,
        "lon": -172.06129744744004,
        "alt_km": 1031.236761872693,
        "timestamp": "2025-12-14T11:29:50.455680+00:00",
        "meta_object_name": "COSMOS 2251 DEB",
        "meta_object_id": "1993-036ACR",
        "meta_epoch": "2025-12-09T11:24:21.665664",
        "meta_mean_motion": 13.44185831,
        "meta_eccentricity": 0.04353122,
        "meta_inclination": 73.9652,
        "meta_ra_of_asc_node": 52.502,
        "meta_arg_of_pericenter": 36.6708,
        "meta_mean_anomaly": 343.8238,
        "meta_ephemeris_type": 0,
        "meta_classification_type": "U",
        "meta_norad_cat_id": 34878,
        "meta_element_set_no": 999,
        "meta_rev_at_epoch": 81229,
        "meta_bstar": 0.00088072379,
        "meta_mean_motion_dot": 8.84e-06,
        "meta_mean_motion_ddot": 0,
        "tle_line1": "1 34878U 93036ACR 25343.47525076  .00000884  00000+0  88072-3 0  9991",
        "tle_line2": "2 34878  73.9652  52.5020 0435312  36.6708 343.8238 13.44185831812297"
      },
      "geometry": {
        "type": "Point",
        "coordinates": [
          -172.06129744744004,
          64.26565111816363
        ]
      }
    },
    {
      "type": "Feature",
      "properties": {
        "norad_id": 34882,
        "name": "COSMOS 2251 DEB",
        "group": "cosmos-2251-debris",
        "lat": -61.62672171266126,
        "lon": -169.7152011514697,
        "alt_km": 660.8755663533766,
        "timestamp": "2025-12-14T11:29:50.455690+00:00",
        "meta_object_name": "COSMOS 2251 DEB",
        "meta_object_id": "1993-036ACV",
        "meta_epoch": "2025-12-12T15:26:33.087264",
        "meta_mean_motion": 14.61597611,
        "meta_eccentricity": 0.00828094,
        "meta_inclination": 74.0462,
        "meta_ra_of_asc_node": 225.7751,
        "meta_arg_of_pericenter": 352.7324,
        "meta_mean_anomaly": 7.2634,
        "meta_ephemeris_type": 0,
        "meta_classification_type": "U",
        "meta_norad_cat_id": 34882,
        "meta_element_set_no": 999,
        "meta_rev_at_epoch": 88523,
        "meta_bstar": 0.00026902724,
        "meta_mean_motion_dot": 1.371e-05,
        "meta_mean_motion_ddot": 0,
        "tle_line1": "1 34882U 93036ACV 25346.64343851  .00001371  00000+0  26903-3 0  9994",
        "tle_line2": "2 34882  74.0462 225.7751 0082809 352.7324   7.2634 14.61597611885231"
      },
      "geometry": {
        "type": "Point",
        "coordinates": [
          -169.7152011514697,
          -61.62672171266126
        ]
      }
    },
    {
      "type": "Feature",
      "properties": {
        "norad_id": 34883,
        "name": "COSMOS 2251 DEB",
        "group": "cosmos-2251-debris",
        "lat": -71.50057166141409,
        "lon": 1.6587170966924591,
        "alt_km": 672.3335823923662,
        "timestamp": "2025-12-14T11:29:50.455700+00:00",
        "meta_object_name": "COSMOS 2251 DEB",
        "meta_object_id": "1993-036ACW",
        "meta_epoch": "2025-12-12T05:16:46.096608",
        "meta_mean_motion": 14.51477124,
        "meta_eccentricity": 0.00951451,
        "meta_inclination": 74.1989,
        "meta_ra_of_asc_node": 63.6857,
        "meta_arg_of_pericenter": 248.9733,
        "meta_mean_anomaly": 110.1233,
        "meta_ephemeris_type": 0,
        "meta_classification_type": "U",
        "meta_norad_cat_id": 34883,
        "meta_element_set_no": 999,
        "meta_rev_at_epoch": 86432,
        "meta_bstar": 0.0063651984,
        "meta_mean_motion_dot": 0.00027049,
        "meta_mean_motion_ddot": 0,
        "tle_line1": "1 34883U 93036ACW 25346.21997797  .00027049  00000+0  63652-2 0  9993",
        "tle_line2": "2 34883  74.1989  63.6857 0095145 248.9733 110.1233 14.51477124864321"
      },
      "geometry": {
        "type": "Point",
        "coordinates": [
          1.6587170966924591,
          -71.50057166141409
        ]
      }
    },
    {
      "type": "Feature",
      "properties": {
        "norad_id": 34884,
        "name": "COSMOS 2251 DEB",
        "group": "cosmos-2251-debris",
        "lat": 73.43796369893863,
        "lon": 158.73638559920985,
        "alt_km": 588.3724705437708,
        "timestamp": "2025-12-14T11:29:50.455710+00:00",
        "meta_object_name": "COSMOS 2251 DEB",
        "meta_object_id": "1993-036ACX",
        "meta_epoch": "2025-12-13T14:39:34.016832",
        "meta_mean_motion": 14.90131565,
        "meta_eccentricity": 0.00024478,
        "meta_inclination": 74.0177,
        "meta_ra_of_asc_node": 54.9969,
        "meta_arg_of_pericenter": 77.0755,
        "meta_mean_anomaly": 41.4804,
        "meta_ephemeris_type": 0,
        "meta_classification_type": "U",
        "meta_norad_cat_id": 34884,
        "meta_element_set_no": 999,
        "meta_rev_at_epoch": 87818,
        "meta_bstar": 0.0027796779,
        "meta_mean_motion_dot": 0.00026971,
        "meta_mean_motion_ddot": 0,
        "tle_line1": "1 34884U 93036ACX 25347.61081038  .00026971  00000+0  27797-2 0  9994",
        "tle_line2": "2 34884  74.0177  54.9969 0002447  77.0755  41.4804 14.90131565878183"
      },
      "geometry": {
        "type": "Point",
        "coordinates": [
          158.73638559920985,
          73.43796369893863
        ]
      }
    },
    {
      "type": "Feature",
      "properties": {
        "norad_id": 34885,
        "name": "COSMOS 2251 DEB",
        "group": "cosmos-2251-debris",
        "lat": 71.84799664997861,
        "lon": -61.10924903994845,
        "alt_km": 723.895963835279,
        "timestamp": "2025-12-14T11:29:50.455720+00:00",
        "meta_object_name": "COSMOS 2251 DEB",
        "meta_object_id": "1993-036ACY",
        "meta_epoch": "2025-12-13T15:30:02.799936",
        "meta_mean_motion": 14.51509369,
        "meta_eccentricity": 0.00151801,
        "meta_inclination": 74.0308,
        "meta_ra_of_asc_node": 181.3161,
        "meta_arg_of_pericenter": 266.7322,
        "meta_mean_anomaly": 160.0049,
        "meta_ephemeris_type": 0,
        "meta_classification_type": "U",
        "meta_norad_cat_id": 34885,
        "meta_element_set_no": 999,
        "meta_rev_at_epoch": 87492,
        "meta_bstar": 0.00087894441,
        "meta_mean_motion_dot": 3.493e-05,
        "meta_mean_motion_ddot": 0,
        "tle_line1": "1 34885U 93036ACY 25347.64586574  .00003493  00000+0  87894-3 0  9992",
        "tle_line2": "2 34885  74.0308 181.3161 0015180 266.7322 160.0049 14.51509369874929"
      },
      "geometry": {
        "type": "Point",
        "coordinates": [
          -61.10924903994845,
          71.84799664997861
        ]
      }
    }
  ]
}